STARLINK-34493          
1 64472U 25133A   25195.83335648  .00080259  00000+0  14386-2 0  9996
2 64472  53.1603 150.6859 0000861 110.0270 261.2527 15.49263912  4644
STARLINK-34492          
1 64473U 25133B   25195.83335648  .00075662  00000+0  13573-2 0  9996
2 64473  53.1603 150.6817 0000854  99.0979 274.0985 15.49267291  4647
STARLINK-34474          
1 64474U 25133C   25195.83335648  .00075577  00000+0  13558-2 0  9995
2 64474  53.1601 150.6777 0000885  95.9371 279.1743 15.49267194  4624
STARLINK-34523          
1 64475U 25133D   25195.83335648  .00074408  00000+0  13347-2 0  9994
2 64475  53.1604 150.6728 0001415 108.7446 268.2199 15.49276805  4623
STARLINK-34496          
1 64476U 25133E   25195.83335648  .00074013  00000+0  13277-2 0  9999
2 64476  53.1603 150.6685 0001414 107.4126 271.4693 15.49277290  4641
STARLINK-34375          
1 64477U 25133F   25195.83335648  .00073893  00000+0  13254-2 0  9990
2 64477  53.1603 150.6650 0001478 102.9634 277.8393 15.49281274  4631
STARLINK-34490          
1 64478U 25133G   25195.83335648  .00074421  00000+0  13349-2 0  9994
2 64478  53.1604 150.6570 0001328 105.9770 278.6541 15.49277429  4633
STARLINK-34528          
1 64479U 25133H   25195.83335648  .00074212  00000+0  13312-2 0  9993
2 64479  53.1603 150.6612 0001326 107.0738 275.6427 15.49277882  4616
STARLINK-34518          
1 64480U 25133J   25195.83335648  .00074107  00000+0  13296-2 0  9999
2 64480  53.1605 150.6528 0001341 105.8530 280.6826 15.49272132  4475
STARLINK-34526          
1 64481U 25133K   25195.83335648  .00073623  00000+0  13210-2 0  9998
2 64481  53.1604 150.6487 0001323 101.1417 287.3118 15.49273302  4526
STARLINK-34527          
1 64482U 25133L   25195.83335648  .00075138  00000+0  13476-2 0  9996
2 64482  53.1605 150.6445 0001385 105.2618 285.1149 15.49276754  4634
STARLINK-34420          
1 64483U 25133M   25195.83335648  .00073634  00000+0  13213-2 0  9995
2 64483  53.1604 150.6406 0001498 107.8339 284.4489 15.49270972  4639
STARLINK-34509          
1 64484U 25133N   25195.83335648  .00074508  00000+0  13369-2 0  9999
2 64484  53.1604 150.6367 0000865  96.7464 297.5339 15.49267913  4638
STARLINK-34409          
1 64485U 25133P   25195.83335648  .00074633  00000+0  13391-2 0  9994
2 64485  53.1603 150.6328 0000945  95.5086 300.6886 15.49267920  4632
STARLINK-34520          
1 64486U 25133Q   25195.83335648  .00073476  00000+0  13183-2 0  9998
2 64486  53.1603 150.6287 0000888  99.4235 298.6761 15.49275877  4630
STARLINK-34477          
1 64487U 25133R   25195.83335648  .00079391  00000+0  14232-2 0  9997
2 64487  53.1603 150.6247 0001035  98.7889 301.2411 15.49265849  4630
STARLINK-34217          
1 64488U 25133S   25195.83335648  .00079815  00000+0  14308-2 0  9993
2 64488  53.1605 150.6204 0001106 101.0234 300.9290 15.49263424  4523
STARLINK-34307          
1 64489U 25133T   25195.83335648  .00073795  00000+0  13242-2 0  9991
2 64489  53.1604 150.6162 0000935  97.0836 306.7802 15.49270018  4617
STARLINK-34505          
1 64490U 25133U   25195.83335648  .00074090  00000+0  13295-2 0  9990
2 64490  53.1605 150.6119 0001334  85.9176 319.8649 15.49268038  4612
STARLINK-34530          
1 64491U 25133V   25195.83335648  .00075639  00000+0  13569-2 0  9995
2 64491  53.1605 150.6081 0001296  83.5841 324.1140 15.49267086  4618
STARLINK-34522          
1 64492U 25133W   25195.83335648  .00075111  00000+0  13476-2 0  9998
2 64492  53.1605 150.6042 0001306  84.4499 325.1681 15.49266487  4634
STARLINK-34462          
1 64493U 25133X   25195.83335648  .00072544  00000+0  13021-2 0  9992
2 64493  53.1604 150.6001 0001305  85.4863 326.0452 15.49269845  4631
STARLINK-34226          
1 64494U 25133Y   25195.83335648  .00072775  00000+0  13062-2 0  9994
2 64494  53.1605 150.5964 0001363  82.0520 331.3971 15.49269257  4471
STARLINK-34364          
1 64495U 25133Z   25195.83335648  .00072123  00000+0  12947-2 0  9993
2 64495  53.1605 150.5880 0001272  87.2555 330.0297 15.49268816  4649
STARLINK-34268          
1 64496U 25133AA  25195.83335648  .00080471  00000+0  14426-2 0  9993
2 64496  53.1606 150.5923 0001280  85.5754 329.8024 15.49258929  4637
STARLINK-34363          
1 64497U 25133AB  25195.83335648  .00071830  00000+0  12895-2 0  9991
2 64497  53.1604 150.5842 0001514  92.7904 326.4111 15.49269160  4643
STARLINK-34427          
1 64498U 25133AC  25195.83335648  .00072483  00000+0  13010-2 0  9997
2 64498  53.1604 150.5804 0001384  81.6210 339.4935 15.49270132  4643
KUIPER-00039            
1 64500U 25134A   25195.42107873  .00014611  00000+0  43774-3 0  9994
2 64500  51.8678 229.9926 0007565 189.3602 170.7244 15.34713613  4466
KUIPER-00040            
1 64501U 25134B   25195.49844297  .00015198  00000+0  46730-3 0  9996
2 64501  51.8652 229.7546 0010954 201.9282 158.1236 15.33826929  4472
KUIPER-00041            
1 64502U 25134C   25195.49284580 -.00042524  00000+0 -12671-2 0  9991
2 64502  51.8681 229.7222 0009002 197.8072 162.2599 15.34007875  4478
KUIPER-00042            
1 64503U 25134D   25195.49040352  .00017538  00000+0  52740-3 0  9996
2 64503  51.8653 229.7032 0008714 190.9417 169.1380 15.34438506  4476
KUIPER-00043            
1 64504U 25134E   25195.48719182  .00014203  00000+0  42695-3 0  9994
2 64504  51.8690 229.6868 0008001 185.1001 174.9904 15.34629123  4392
KUIPER-00044            
1 64505U 25134F   25195.43075282  .00010303  00000+0  31934-3 0  9997
2 64505  51.8637 230.0488 0010714 193.2662 166.8043 15.33963900  4000
KUIPER-00046            
1 64506U 25134G   25195.42614736  .00014780  00000+0  44667-3 0  9990
2 64506  51.8665 230.0236 0009626 189.1137 170.9675 15.34411243  4000
KUIPER-00047            
1 64507U 25134H   25195.43030884  .00008518  00000+0  26529-3 0  9997
2 64507  51.8622 230.0442 0010342 199.8534 160.2050 15.34059037  4467
KUIPER-00048            
1 64508U 25134J   25195.46920742  .00016766  00000+0  48043-3 0  9991
2 64508  51.8757 229.5767 0002836 168.3847 191.7205 15.36021187  4476
KUIPER-00049            
1 64509U 25134K   25195.41664724  .00014483  00000+0  42872-3 0  9990
2 64509  51.8711 229.9684 0006914 183.5308 176.5630 15.35104091  4468
KUIPER-00050            
1 64510U 25134L   25195.61384938  .00014843  00000+0  44114-3 0  9991
2 64510  51.8721 229.0401 0007411 185.0378 175.0534 15.34953500  4032
KUIPER-00051            
1 64511U 25134M   25195.47707778  .00012931  00000+0  38050-3 0  9995
2 64511  51.8729 229.6265 0005124 176.5099 183.5924 15.35406615  4475
KUIPER-00052            
1 64512U 25134N   25195.83335648  .00000908  00000+0  34140-4 0  9997
2 64512  51.8745 227.7965 0003593 190.7886  35.6043 15.38173067  4069
KUIPER-00053            
1 64513U 25134P   25195.53030276  .00016667  00000+0  47507-3 0  9993
2 64513  51.8761 229.2354 0002028 160.3870 199.7194 15.36192688  4488
KUIPER-00054            
1 64514U 25134Q   25195.46823449  .00015245  00000+0  43763-3 0  9999
2 64514  51.8751 229.5709 0002943 160.2958 199.8142 15.36042275  4476
KUIPER-00055            
1 64515U 25134R   25195.58335648  .00046502  00000+0  12843-2 0  9996
2 64515  51.8755 228.9130 0000805  74.3831 252.5653 15.36598777  4345
KUIPER-00056            
1 64516U 25134S   25195.47093396  .00014766  00000+0  42625-3 0  9995
2 64516  51.8732 229.5885 0003321 171.9062 188.1978 15.35893250  4472
KUIPER-00057            
1 64517U 25134T   25195.48173013  .00019795  00000+0  58421-3 0  9990
2 64517  51.8698 229.6540 0006618 183.2277 176.8667 15.34959874  4472
KUIPER-00058            
1 64518U 25134U   25195.47583979  .00015423  00000+0  45036-3 0  9998
2 64518  51.8717 229.6189 0004551 182.1885 177.9082 15.35492426  4470
KUIPER-00059            
1 64519U 25134V   25195.46071652  .00017877  00000+0  50168-3 0  9995
2 64519  51.8760 229.5171 0001371 108.9901 251.1234 15.36628697  4477
KUIPER-00060            
1 64520U 25134W   25195.52880751  .00014686  00000+0  41775-3 0  9991
2 64520  51.8758 229.2262 0002265 128.6273 231.4916 15.36360976  4479
KUIPER-00061            
1 64521U 25134X   25195.47791872  .00009257  00000+0  27689-3 0  9997
2 64521  51.8739 229.6323 0005371 183.8597 176.2348 15.35261126  4464
KUIPER-00062            
1 64522U 25134Y   25195.47342229  .00016112  00000+0  46873-3 0  9990
2 64522  51.8742 229.6046 0004626 171.1407 188.9661 15.35573961  4015
KUIPER-00063            
1 64523U 25134Z   25195.33643327  .00015683  00000+0  44766-3 0  9990
2 64523  51.8741 230.1881 0002491 151.0738 209.0387 15.36197708  4451
KUIPER-00064            
1 64524U 25134AA  25195.83335648 -.00000985  00000+0 -16379-4 0  9991
2 64524  51.8758 227.7010 0001548 102.8804 168.5705 15.36733766  4370
KUIPER-00065            
1 64525U 25134AB  25195.48853672  .00016533  00000+0  49649-3 0  9994
2 64525  51.8703 229.6979 0008284 186.3841 173.7040 15.34530646  4468
KUIPER-00066            
1 64526U 25134AC  25195.52761020  .00009282  00000+0  26736-3 0  9990
2 64526  51.8750 229.2200 0001520 112.8278 247.2869 15.36455187  4484
2025-131D               
1 64527U 25131D   25195.59303395 -.00000267  00000+0  00000+0 0  9999
2 64527   0.9989 280.6771 3658862 174.1194 154.1363  1.00076148   221
AXIOM-4 (AX-4)          
1 64593U 25136A   25195.85349944  .00004183  00000+0  10000-3 0  9991
2 64593  51.6363 169.9496 0003692   8.7454 351.3140 15.43789036  3045
STARLINK-34280          
1 64594U 25137A   25195.58335648 -.00010278  00000+0 -65944-4 0  9991
2 64594  53.1591  15.1062 0000633  86.4408 306.5144 15.74198672  4086
STARLINK-34517          
1 64595U 25137B   25195.83335648 -.00104559  00000+0 -71782-3 0  9992
2 64595  53.1589  13.8628 0001073  80.5806 291.8908 15.74210691  4128
STARLINK-34510          
1 64596U 25137C   25195.83335648 -.00290477  00000+0 -20403-2 0  9991
2 64596  53.1590  13.8591 0001220  87.5263 286.9505 15.74276093  4124
